{
  "type": "FeatureCollection",
  "features": [
    {
      "type": "Feature",
      "properties": {
        "norad_id": 19071,
        "name": "OSCAR 32",
        "group": "nnss",
        "lat": 57.133101041554056,
        "lon": -163.23324882040222,
        "alt_km": 1091.6800910513912,
        "timestamp": "2025-12-04T10:51:50.374123+00:00",
        "meta_object_name": "OSCAR 32",
        "meta_object_id": "1988-033B",
        "meta_epoch": "2025-12-04T03:16:50.048832",
        "meta_mean_motion": 13.27952281,
        "meta_eccentricity": 0.0187629,
        "meta_inclination": 90.3227,
        "meta_ra_of_asc_node": 16.2571,
        "meta_arg_of_pericenter": 190.7186,
        "meta_mean_anomaly": 224.3743,
        "meta_ephemeris_type": 0,
        "meta_classification_type": "U",
        "meta_norad_cat_id": 19071,
        "meta_element_set_no": 999,
        "meta_rev_at_epoch": 82151,
        "meta_bstar": 0.00022432,
        "meta_mean_motion_dot": 1.2e-06,
        "meta_mean_motion_ddot": 0,
        "tle_line1": "1 19071U 88033B   25338.13669038  .00000120  00000+0  22432-3 0  9995",
        "tle_line2": "2 19071  90.3227  16.2571 0187629 190.7186 224.3743 13.27952281821512"
      },
      "geometry": {
        "type": "Point",
        "coordinates": [
          -163.23324882040222,
          57.133101041554056
        ]
      }
    },
    {
      "type": "Feature",
      "properties": {
        "norad_id": 19223,
        "name": "NOVA 2",
        "group": "nnss",
        "lat": 68.12293897137795,
        "lon": -101.7489839417889,
        "alt_km": 1159.8875425684846,
        "timestamp": "2025-12-04T10:51:50.374134+00:00",
        "meta_object_name": "NOVA 2",
        "meta_object_id": "1988-052A",
        "meta_epoch": "2025-12-03T20:22:59.673792",
        "meta_mean_motion": 13.22934277,
        "meta_eccentricity": 0.00312959,
        "meta_inclination": 89.9873,
        "meta_ra_of_asc_node": 78.2834,
        "meta_arg_of_pericenter": 40.8343,
        "meta_mean_anomaly": 78.7636,
        "meta_ephemeris_type": 0,
        "meta_classification_type": "U",
        "meta_norad_cat_id": 19223,
        "meta_element_set_no": 999,
        "meta_rev_at_epoch": 80830,
        "meta_bstar": 0.00015420407,
        "meta_mean_motion_dot": 7.4e-07,
        "meta_mean_motion_ddot": 0,
        "tle_line1": "1 19223U 88052A   25337.84930178  .00000074  00000+0  15420-3 0  9995",
        "tle_line2": "2 19223  89.9873  78.2834 0031295  40.8343  78.7636 13.22934277808303"
      },
      "geometry": {
        "type": "Point",
        "coordinates": [
          -101.7489839417889,
          68.12293897137795
        ]
      }
    },
    {
      "type": "Feature",
      "properties": {
        "norad_id": 19419,
        "name": "OSCAR 25",
        "group": "nnss",
        "lat": -38.085533254761714,
        "lon": 20.244423715750713,
        "alt_km": 1062.2453587634063,
        "timestamp": "2025-12-04T10:51:50.374143+00:00",
        "meta_object_name": "OSCAR 25",
        "meta_object_id": "1988-074A",
        "meta_epoch": "2025-12-04T02:15:01.619136",
        "meta_mean_motion": 13.4262086,
        "meta_eccentricity": 0.0094221,
        "meta_inclination": 90.0354,
        "meta_ra_of_asc_node": 20.2154,
        "meta_arg_of_pericenter": 270.9634,
        "meta_mean_anomaly": 116.5151,
        "meta_ephemeris_type": 0,
        "meta_classification_type": "U",
        "meta_norad_cat_id": 19419,
        "meta_element_set_no": 999,
        "meta_rev_at_epoch": 82524,
        "meta_bstar": 0.0002867,
        "meta_mean_motion_dot": 1.75e-06,
        "meta_mean_motion_ddot": 0,
        "tle_line1": "1 19419U 88074A   25338.09376874  .00000175  00000+0  28670-3 0  9994",
        "tle_line2": "2 19419  90.0354  20.2154 0094221 270.9634 116.5151 13.42620860825243"
      },
      "geometry": {
        "type": "Point",
        "coordinates": [
          20.244423715750713,
          -38.085533254761714
        ]
      }
    },
    {
      "type": "Feature",
      "properties": {
        "norad_id": 19420,
        "name": "OSCAR 31",
        "group": "nnss",
        "lat": -25.286795856652382,
        "lon": -159.45230613514792,
        "alt_km": 1069.0501071696171,
        "timestamp": "2025-12-04T10:51:50.374153+00:00",
        "meta_object_name": "OSCAR 31",
        "meta_object_id": "1988-074B",
        "meta_epoch": "2025-12-04T04:48:49.436352",
        "meta_mean_motion": 13.42582601,
        "meta_eccentricity": 0.009247,
        "meta_inclination": 90.0371,
        "meta_ra_of_asc_node": 20.5643,
        "meta_arg_of_pericenter": 264.7621,
        "meta_mean_anomaly": 163.5934,
        "meta_ephemeris_type": 0,
        "meta_classification_type": "U",
        "meta_norad_cat_id": 19420,
        "meta_element_set_no": 999,
        "meta_rev_at_epoch": 82536,
        "meta_bstar": 0.0002635,
        "meta_mean_motion_dot": 1.61e-06,
        "meta_mean_motion_ddot": 0,
        "tle_line1": "1 19420U 88074B   25338.20057218  .00000161  00000+0  26350-3 0  9995",
        "tle_line2": "2 19420  90.0371  20.5643 0092470 264.7621 163.5934 13.42582601825365"
      },
      "geometry": {
        "type": "Point",
        "coordinates": [
          -159.45230613514792,
          -25.286795856652382
        ]
      }
    }
  ]
}